[{"OBJECT_NAME":"LEMUR-2-PETERG","OBJECT_ID":"2017-042S","EPOCH":"2026-03-09T11:34:35.656032","MEAN_MOTION":15.29611459,"ECCENTRICITY":0.00037,"INCLINATION":97.398,"RA_OF_ASC_NODE":253.6596,"ARG_OF_PERICENTER":341.6938,"MEAN_ANOMALY":18.4169,"EPHEMERIS_TYPE":0,"CLASSIFICATION_TYPE":"U","NORAD_CAT_ID":42841,"ELEMENT_SET_NO":999,"REV_AT_EPOCH":47317,"BSTAR":0.00081076471,"MEAN_MOTION_DOT":0.0002324,"MEAN_MOTION_DDOT":0},{"OBJECT_NAME":"STARLINK-33842","OBJECT_ID":"2025-091H","EPOCH":"2026-03-09T23:05:19.544064","MEAN_MOTION":15.27593628,"ECCENTRICITY":0.00013702,"INCLINATION":43.0006,"RA_OF_ASC_NODE":51.0074,"ARG_OF_PERICENTER":257.3435,"MEAN_ANOMALY":102.7264,"EPHEMERIS_TYPE":0,"CLASSIFICATION_TYPE":"U","NORAD_CAT_ID":63782,"ELEMENT_SET_NO":999,"REV_AT_EPOCH":4903,"BSTAR":0.0014940831,"MEAN_MOTION_DOT":0.00041098,"MEAN_MOTION_DDOT":0}]
